{"type": "FeatureCollection", "features": [ {"type": "Feature", "properties": {"norad_id": 66907, "name": "1998-067XT", "group": "last-30-days", "lat": 31.035369807594364, "lon": -174.0825013426385, "alt_km": 413.32944151783886, "timestamp": "2025-12-09T16:56:35.360478+00:00", "meta": {"OBJECT_NAME": "1998-067XT", "OBJECT_ID": "1998-067XT", "EPOCH": "2025-12-09T12:07:37.113888", "MEAN_MOTION": 15.50864429, "ECCENTRICITY": 0.0004804, "INCLINATION": 51.6307, "RA_OF_ASC_NODE": 158.4423, "ARG_OF_PERICENTER": 208.5081, "MEAN_ANOMALY": 151.5646, "EPHEMERIS_TYPE": 0, "CLASSIFICATION_TYPE": "U", "NORAD_CAT_ID": 66907, "ELEMENT_SET_NO": 999, "REV_AT_EPOCH": 111, "BSTAR": 0.0012921, "MEAN_MOTION_DOT": 0.00076342, "MEAN_MOTION_DDOT": 0}, "tle": {"line1": "1 66907U 98067XT  25343.50529067  .00076342  00000+0  12921-2 0  9997", "line2": "2 66907  51.6307 158.4423 0004804 208.5081 151.5646 15.50864429  1114"}}, "geometry": {"type": "Point", "coordinates": [-174.0825013426385, 31.035369807594364]}}, {"type": "Feature", "properties": {"norad_id": 66908, "name": "1998-067XU", "group": "last-30-days", "lat": 31.83064198898476, "lon": -173.09471754045543, "alt_km": 413.1718745143871, "timestamp": "2025-12-09T16:56:35.360488+00:00", "meta": {"OBJECT_NAME": "1998-067XU", "OBJECT_ID": "1998-067XU", "EPOCH": "2025-12-09T12:07:19.625664", "MEAN_MOTION": 15.50906956, "ECCENTRICITY": 0.0005005, "INCLINATION": 51.6299, "RA_OF_ASC_NODE": 158.441, "ARG_OF_PERICENTER": 206.9098, "MEAN_ANOMALY": 153.1632, "EPHEMERIS_TYPE": 0, "CLASSIFICATION_TYPE": "U", "NORAD_CAT_ID": 66908, "ELEMENT_SET_NO": 999, "REV_AT_EPOCH": 111, "BSTAR": 0.0012986, "MEAN_MOTION_DOT": 0.0007685, "MEAN_MOTION_DDOT": 0}, "tle": {"line1": "1 66908U 98067XU  25343.50508826  .00076850  00000+0  12986-2 0  9993", "line2": "2 66908  51.6299 158.4410 0005005 206.9098 153.1632 15.50906956  1110"}}, "geometry": {"type": "Point", "coordinates": [-173.09471754045543, 31.83064198898476]}}, {"type": "Feature", "properties": {"norad_id": 66909, "name": "SILVERSAT", "group": "last-30-days", "lat": 32.49275172998874, "lon": -172.25331860564597, "alt_km": 412.7082942727211, "timestamp": "2025-12-09T16:56:35.360498+00:00", "meta": {"OBJECT_NAME": "SILVERSAT", "OBJECT_ID": "1998-067XV", "EPOCH": "2025-12-09T12:07:05.660832", "MEAN_MOTION": 15.51001422, "ECCENTRICITY": 0.0004874, "INCLINATION": 51.6302, "RA_OF_ASC_NODE": 158.4394, "ARG_OF_PERICENTER": 208.8709, "MEAN_ANOMALY": 151.2011, "EPHEMERIS_TYPE": 0, "CLASSIFICATION_TYPE": "U", "NORAD_CAT_ID": 66909, "ELEMENT_SET_NO": 999, "REV_AT_EPOCH": 111, "BSTAR": 0.0014217, "MEAN_MOTION_DOT": 0.00084543, "MEAN_MOTION_DDOT": 0}, "tle": {"line1": "1 66909U 98067XV  25343.50492663  .00084543  00000+0  14217-2 0  9992", "line2": "2 66909  51.6302 158.4394 0004874 208.8709 151.2011 15.51001422  1115"}}, "geometry": {"type": "Point", "coordinates": [-172.25331860564597, 32.49275172998874]}}, {"type": "Feature", "properties": {"norad_id": 66910, "name": "1998-067XW", "group": "last-30-days", "lat": 36.818593754478805, "lon": -166.19425333859803, "alt_km": 411.4488728929218, "timestamp": "2025-12-09T16:56:35.360510+00:00", "meta": {"OBJECT_NAME": "1998-067XW", "OBJECT_ID": "1998-067XW", "EPOCH": "2025-12-08T22:10:28.284672", "MEAN_MOTION": 15.51111527, "ECCENTRICITY": 0.0005924, "INCLINATION": 51.6296, "RA_OF_ASC_NODE": 161.31, "ARG_OF_PERICENTER": 189.6176, "MEAN_ANOMALY": 170.4701, "EPHEMERIS_TYPE": 0, "CLASSIFICATION_TYPE": "U", "NORAD_CAT_ID": 66910, "ELEMENT_SET_NO": 999, "REV_AT_EPOCH": 102, "BSTAR": 0.0011827, "MEAN_MOTION_DOT": 0.00070418, "MEAN_MOTION_DDOT": 0}, "tle": {"line1": "1 66910U 98067XW  25342.92393848  .00070418  00000+0  11827-2 0  9994", "line2": "2 66910  51.6296 161.3100 0005924 189.6176 170.4701 15.51111527  1025"}}, "geometry": {"type": "Point", "coordinates": [-166.19425333859803, 36.818593754478805]}}, {"type": "Feature", "properties": {"norad_id": 66911, "name": "1998-067XX", "group": "last-30-days", "lat": 37.92714337046099, "lon": -164.44955358957108, "alt_km": 410.6657652567301, "timestamp": "2025-12-09T16:56:35.360521+00:00", "meta": {"OBJECT_NAME": "1998-067XX", "OBJECT_ID": "1998-067XX", "EPOCH": "2025-12-09T02:48:25.039872", "MEAN_MOTION": 15.51276485, "ECCENTRICITY": 0.0005703, "INCLINATION": 51.6296, "RA_OF_ASC_NODE": 160.3494, "ARG_OF_PERICENTER": 191.2268, "MEAN_ANOMALY": 168.8595, "EPHEMERIS_TYPE": 0, "CLASSIFICATION_TYPE": "U", "NORAD_CAT_ID": 66911, "ELEMENT_SET_NO": 999, "REV_AT_EPOCH": 104, "BSTAR": 0.0014246, "MEAN_MOTION_DOT": 0.00085582, "MEAN_MOTION_DDOT": 0}, "tle": {"line1": "1 66911U 98067XX  25343.11695648  .00085582  00000+0  14246-2 0  9996", "line2": "2 66911  51.6296 160.3494 0005703 191.2268 168.8595 15.51276485  1046"}}, "geometry": {"type": "Point", "coordinates": [-164.44955358957108, 37.92714337046099]}}, {"type": "Feature", "properties": {"norad_id": 66912, "name": "1998-067XY", "group": "last-30-days", "lat": 29.23762072509269, "lon": -176.22390571662345, "alt_km": 414.3597284676662, "timestamp": "2025-12-09T16:56:35.360531+00:00", "meta": {"OBJECT_NAME": "1998-067XY", "OBJECT_ID": "1998-067XY", "EPOCH": "2025-12-08T19:07:24.168000", "MEAN_MOTION": 15.50590071, "ECCENTRICITY": 0.0005044, "INCLINATION": 51.6301, "RA_OF_ASC_NODE": 161.961, "ARG_OF_PERICENTER": 202.8278, "MEAN_ANOMALY": 157.2488, "EPHEMERIS_TYPE": 0, "CLASSIFICATION_TYPE": "U", "NORAD_CAT_ID": 66912, "ELEMENT_SET_NO": 999, "REV_AT_EPOCH": 99, "BSTAR": 0.00096272, "MEAN_MOTION_DOT": 0.00056065, "MEAN_MOTION_DDOT": 0}, "tle": {"line1": "1 66912U 98067XY  25342.79680750  .00056065  00000+0  96272-3 0  9992", "line2": "2 66912  51.6301 161.9610 0005044 202.8278 157.2488 15.50590071   994"}}, "geometry": {"type": "Point", "coordinates": [-176.22390571662345, 29.23762072509269]}}, {"type": "Feature", "properties": {"norad_id": 66913, "name": "2025-284A", "group": "last-30-days", "lat": 42.96472244816187, "lon": 142.67493974089905, "alt_km": 510.4953614425649, "timestamp": "2025-12-09T16:56:35.360544+00:00", "meta": {"OBJECT_NAME": "2025-284A", "OBJECT_ID": "2025-284A", "EPOCH": "2025-12-09T12:00:27.920160", "MEAN_MOTION": 15.18821732, "ECCENTRICITY": 0.0008082, "INCLINATION": 80.4055, "RA_OF_ASC_NODE": 133.871, "ARG_OF_PERICENTER": 257.3256, "MEAN_ANOMALY": 102.7068, "EPHEMERIS_TYPE": 0, "CLASSIFICATION_TYPE": "U", "NORAD_CAT_ID": 66913, "ELEMENT_SET_NO": 999, "REV_AT_EPOCH": 63, "BSTAR": 0.00069918, "MEAN_MOTION_DOT": 0.00014599, "MEAN_MOTION_DDOT": 0}, "tle": {"line1": "1 66913U 25284A   25343.50032315  .00014599  00000+0  69918-3 0  9995", "line2": "2 66913  80.4055 133.8710 0008082 257.3256 102.7068 15.18821732   631"}}, "geometry": {"type": "Point", "coordinates": [142.67493974089905, 42.96472244816187]}}, {"type": "Feature", "properties": {"norad_id": 66914, "name": "2025-284B", "group": "last-30-days", "lat": 50.78550525144569, "lon": 145.57105365518282, "alt_km": 509.5043323917789, "timestamp": "2025-12-09T16:56:35.360555+00:00", "meta": {"OBJECT_NAME": "2025-284B", "OBJECT_ID": "2025-284B", "EPOCH": "2025-12-07T23:38:29.179680", "MEAN_MOTION": 15.20093076, "ECCENTRICITY": 0.00128589, "INCLINATION": 80.4047, "RA_OF_ASC_NODE": 135.7909, "ARG_OF_PERICENTER": 245.1407, "MEAN_ANOMALY": 114.8485, "EPHEMERIS_TYPE": 0, "CLASSIFICATION_TYPE": "U", "NORAD_CAT_ID": 66914, "ELEMENT_SET_NO": 999, "REV_AT_EPOCH": 40, "BSTAR": 0.00060156278, "MEAN_MOTION_DOT": 0.00013048, "MEAN_MOTION_DDOT": 0}, "tle": {"line1": "1 66914U 25284B   25341.98505995  .00013048  00000+0  60156-3 0  9998", "line2": "2 66914  80.4047 135.7909 0012858 245.1407 114.8485 15.20093076   400"}}, "geometry": {"type": "Point", "coordinates": [145.57105365518282, 50.78550525144569]}}, {"type": "Feature", "properties": {"norad_id": 66915, "name": "HULIANWANG DIGUI 14A", "group": "last-30-days", "lat": -34.80983409269812, "lon": 93.94214343623777, "alt_km": 874.207554945322, "timestamp": "2025-12-09T16:56:35.360568+00:00", "meta": {"OBJECT_NAME": "HULIANWANG DIGUI 14A", "OBJECT_ID": "2025-285A", "EPOCH": "2025-12-09T12:03:07.617600", "MEAN_MOTION": 14.05465952, "ECCENTRICITY": 0.0008094, "INCLINATION": 50.0033, "RA_OF_ASC_NODE": 130.486, "ARG_OF_PERICENTER": 271.6423, "MEAN_ANOMALY": 88.3555, "EPHEMERIS_TYPE": 0, "CLASSIFICATION_TYPE": "U", "NORAD_CAT_ID": 66915, "ELEMENT_SET_NO": 999, "REV_AT_EPOCH": 45, "BSTAR": 1.3197e-05, "MEAN_MOTION_DOT": -1.3e-06, "MEAN_MOTION_DDOT": 0}, "tle": {"line1": "1 66915U 25285A   25343.50217150 -.00000130  00000+0  13197-4 0  9996", "line2": "2 66915  50.0033 130.4860 0008094 271.6423  88.3555 14.05465952   452"}}, "geometry": {"type": "Point", "coordinates": [93.94214343623777, -34.80983409269812]}}, {"type": "Feature", "properties": {"norad_id": 66916, "name": "HULIANWANG DIGUI 14B", "group": "last-30-days", "lat": -34.436144089137024, "lon": 94.51227237940643, "alt_km": 875.0127097770992, "timestamp": "2025-12-09T16:56:35.360579+00:00", "meta": {"OBJECT_NAME": "HULIANWANG DIGUI 14B", "OBJECT_ID": "2025-285B", "EPOCH": "2025-12-09T12:02:58.135200", "MEAN_MOTION": 14.05512275, "ECCENTRICITY": 0.000695, "INCLINATION": 50.0044, "RA_OF_ASC_NODE": 130.4865, "ARG_OF_PERICENTER": 266.4133, "MEAN_ANOMALY": 93.5977, "EPHEMERIS_TYPE": 0, "CLASSIFICATION_TYPE": "U", "NORAD_CAT_ID": 66916, "ELEMENT_SET_NO": 999, "REV_AT_EPOCH": 45, "BSTAR": 1.3131e-05, "MEAN_MOTION_DOT": -1.31e-06, "MEAN_MOTION_DDOT": 0}, "tle": {"line1": "1 66916U 25285B   25343.50206175 -.00000131  00000+0  13131-4 0  9991", "line2": "2 66916  50.0044 130.4865 0006950 266.4133  93.5977 14.05512275   456"}}, "geometry": {"type": "Point", "coordinates": [94.51227237940643, -34.436144089137024]}}]}